SOAR                    
1 48851U 98067SM  21270.41339801  .00053022  00000-0  78141-3 0  9993
2 48851  51.6383 194.8973 0005628 138.1897 221.9525 15.54856806 16385
BD-28                   
1 48867U 98067SN  21270.50250445  .00012939  00000-0  22228-3 0  9993
2 48867  51.6412 195.5046 0003108 171.9920 188.1120 15.51498990 15092
MIR-SAT 1               
1 48868U 98067SP  21270.80722882  .00024400  00000-0  39579-3 0  9999
2 48868  51.6408 193.7895 0003889 142.4414 217.6848 15.52603825 15177
